{
    "links": {
        "self": "http://www.neowsapp.com/rest/v1/neo/3412891?api_key=iIulBulltgU6a56xZRHN4H3l9WmuAYTsLGpBGhQ2"
    },
    "id": "3412891",
    "neo_reference_id": "3412891",
    "name": "(2008 KB6)",
    "designation": "2008 KB6",
    "nasa_jpl_url": "http://ssd.jpl.nasa.gov/sbdb.cgi?sstr=3412891",
    "absolute_magnitude_h": 24.3,
    "estimated_diameter": {
        "kilometers": {
            "estimated_diameter_min": 0.0366906138,
            "estimated_diameter_max": 0.0820427065
        },
        "meters": {
            "estimated_diameter_min": 36.6906137531,
            "estimated_diameter_max": 82.0427064882
        },
        "miles": {
            "estimated_diameter_min": 0.0227984834,
            "estimated_diameter_max": 0.0509789586
        },
        "feet": {
            "estimated_diameter_min": 120.3760332259,
            "estimated_diameter_max": 269.1689931548
        }
    },
    "is_potentially_hazardous_asteroid": false,
    "close_approach_data": [
        {
            "close_approach_date": "2008-06-10",
            "close_approach_date_full": "2008-Jun-10 07:01",
            "epoch_date_close_approach": 1213081260000,
            "relative_velocity": {
                "kilometers_per_second": "14.4746201625",
                "kilometers_per_hour": "52108.632585113",
                "miles_per_hour": "32378.2778415665"
            },
            "miss_distance": {
                "astronomical": "0.1001275952",
                "lunar": "38.9496345328",
                "kilometers": "14978874.970142224",
                "miles": "9307441.3146577312"
            },
            "orbiting_body": "Earth"
        },
        {
            "close_approach_date": "2008-10-31",
            "close_approach_date_full": "2008-Oct-31 09:55",
            "epoch_date_close_approach": 1225446900000,
            "relative_velocity": {
                "kilometers_per_second": "11.5251336027",
                "kilometers_per_hour": "41490.4809697686",
                "miles_per_hour": "25780.5713559098"
            },
            "miss_distance": {
                "astronomical": "0.4787712149",
                "lunar": "186.2420025961",
                "kilometers": "71623153.966352263",
                "miles": "44504564.1706287094"
            },
            "orbiting_body": "Earth"
        }
    ],
    "orbital_data": {
        "orbit_id": "7",
        "orbit_determination_date": "2017-04-06 09:03:22",
        "first_observation_date": "2008-05-29",
        "last_observation_date": "2008-06-09",
        "data_arc_in_days": 11,
        "observations_used": 25,
        "orbit_uncertainty": "9",
        "minimum_orbit_intersection": ".0828981",
        "jupiter_tisserand_invariant": "4.067",
        "epoch_osculation": "2454617.5",
        "eccentricity": ".4454893599891482",
        "semi_major_axis": "1.663306706123744",
        "inclination": "22.04323524912795",
        "ascending_node_longitude": "69.66231508407864",
        "orbital_period": "783.5323546593619",
        "perihelion_distance": ".9223212661470193",
        "perihelion_argument": "245.793184109356",
        "aphelion_distance": "2.404292146100469",
        "perihelion_time": "2454676.494909105356",
        "mean_anomaly": "332.8943327590328",
        "mean_motion": ".4594577337607313",
        "equinox": "J2000",
        "orbit_class": {
            "orbit_class_type": "APO",
            "orbit_class_description": "Near-Earth asteroid orbits which cross the Earth’s orbit similar to that of 1862 Apollo",
            "orbit_class_range": "a (semi-major axis) > 1.0 AU; q (perihelion) < 1.017 AU"
        }
    },
    "is_sentry_object": false
}